[ {"name": "STARLINK-4268", "line1": "1 53183U 22083BD  26188.83337963  .00069332  00000+0  37585-2 0  9994", "line2": "2 53183  53.1593 309.2898 0000719  44.3424 112.8248 15.13966838  5691"}, {"name": "STARLINK-4257", "line1": "1 53184U 22083BE  26188.36768131  .00004222  00000+0  28332-3 0  9996", "line2": "2 53184  53.1586 306.2309 0000922  86.9576 273.1521 15.08820614219994"}, {"name": "STARLINK-4391", "line1": "1 53189U 22084A   26188.71400161  .00000596  00000+0  45191-4 0  9990", "line2": "2 53189  97.2851 247.7146 0001479 123.7382 236.3986 15.05645660218116"}, {"name": "STARLINK-4332", "line1": "1 53190U 22084B   26188.72784677  .00000910  00000+0  66941-4 0  9996", "line2": "2 53190  97.2846 247.7632 0001265 125.2523 234.8823 15.05656007218119"}, {"name": "STARLINK-4369", "line1": "1 53191U 22084C   26188.83337963  .00015777  00000+0  35631-3 0  9999", "line2": "2 53191  97.5992 250.8247 0001464  98.9292 230.7744 15.43288762  5787"}, {"name": "STARLINK-4375", "line1": "1 53192U 22084D   26188.69185176  .00000913  00000+0  67163-4 0  9993", "line2": "2 53192  97.2833 247.7289 0001579 126.1500 233.9874 15.05651157218104"}, {"name": "STARLINK-4351", "line1": "1 53193U 22084E   26188.72374279  .00000914  00000+0  67227-4 0  9994", "line2": "2 53193  97.2834 246.6307 0001717 104.9341 255.2077 15.05641720218383"}, {"name": "STARLINK-4382", "line1": "1 53194U 22084F   26188.70846911  .00001559  00000+0  11193-3 0  9996", "line2": "2 53194  97.2847 247.7145 0001299 103.0776 257.0597 15.05646532217435"}, {"name": "STARLINK-4403", "line1": "1 53197U 22084J   26188.71818310  .00001334  00000+0  96331-4 0  9991", "line2": "2 53197  97.2820 246.6230 0001382 147.2189 212.9124 15.05656494217369"}, {"name": "STARLINK-4385", "line1": "1 53198U 22084K   26188.74865516  .00000553  00000+0  42196-4 0  9997", "line2": "2 53198  97.2829 246.7347 0002175 117.4055 242.7394 15.05650648218031"}, {"name": "STARLINK-4395", "line1": "1 53199U 22084L   26188.75000061  .00000644  00000+0  48551-4 0  9997", "line2": "2 53199  97.2833 247.7843 0001395  94.8540 265.2847 15.05652236217441"}, {"name": "STARLINK-4417", "line1": "1 53200U 22084M   26188.70293837  .00000431  00000+0  33757-4 0  9996", "line2": "2 53200  97.2835 247.7043 0001228 100.4247 259.7119 15.05643926218099"}, {"name": "STARLINK-4405", "line1": "1 53201U 22084N   26188.83337963  .00491073  00000+0  79516-2 0  9997", "line2": "2 53201  97.6004 252.1152 0001335  87.8844 104.8896 15.51021840  5848"}, {"name": "STARLINK-4411", "line1": "1 53202U 22084P   26188.73892655  .00001129  00000+0  82156-4 0  9996", "line2": "2 53202  97.2804 247.8024 0000799  98.2110 261.9208 15.05648000217442"}, {"name": "STARLINK-4409", "line1": "1 53203U 22084Q   26188.73616034  .00000545  00000+0  41694-4 0  9995", "line2": "2 53203  97.2821 247.7860 0001125  77.9308 282.2046 15.05650906217440"}, {"name": "STARLINK-4410", "line1": "1 53204U 22084R   26188.83337963 -.00000433  00000+0 -80660-5 0  9993", "line2": "2 53204  97.5991 250.5880 0001318  80.6669 121.7110 15.41975264  5734"}, {"name": "STARLINK-4397", "line1": "1 53205U 22084S   26188.73062564  .00000977  00000+0  71604-4 0  9993", "line2": "2 53205  97.2838 247.7870 0001943 116.0465 244.0963 15.05651236217449"}, {"name": "STARLINK-4408", "line1": "1 53206U 22084T   26188.74447855 -.00001808  00000+0 -12147-3 0  9997", "line2": "2 53206  97.2822 247.7749 0001351  85.8742 274.2640 15.05646385217448"}, {"name": "STARLINK-4413", "line1": "1 53207U 22084U   26188.70710509  .00001181  00000+0  85690-4 0  9999", "line2": "2 53207  97.2840 246.5868 0001550 109.2976 250.8419 15.05656759217360"}, {"name": "STARLINK-4425", "line1": "1 53208U 22084V   26188.70429464  .00005857  00000+0  40900-3 0  9995", "line2": "2 53208  97.3075 246.6594 0002231 130.2683 229.8740 15.05695002217362"}, {"name": "STARLINK-4423", "line1": "1 53209U 22084W   26188.72097323  .00001032  00000+0  75402-4 0  9990", "line2": "2 53209  97.2833 246.7272 0002199 115.2951 244.8505 15.05652947217370"}, {"name": "STARLINK-4427", "line1": "1 53210U 22084X   26188.70158779  .00001636  00000+0  11732-3 0  9998", "line2": "2 53210  97.2843 246.6112 0001535 101.6255 258.5145 15.05637745217904"}, {"name": "STARLINK-4416", "line1": "1 53212U 22084Z   26188.73338856  .00000008  00000+0  44658-5 0  9996", "line2": "2 53212  97.2831 247.7725 0001978  58.6913 301.4509 15.05648838217433"}, {"name": "STARLINK-4414", "line1": "1 53213U 22084AA  26188.74311343 -.00000574  00000+0 -35855-4 0  9998", "line2": "2 53213  97.2826 246.6717 0002028 115.3591 244.7847 15.05658281217894"}, {"name": "STARLINK-4353", "line1": "1 53214U 22084AB  26188.69605142  .00001591  00000+0  11415-3 0  9999", "line2": "2 53214  97.2844 246.6002 0001563 122.9982 237.1396 15.05637405217365"}, {"name": "STARLINK-4335", "line1": "1 53215U 22084AC  26188.71678846  .00002018  00000+0  14374-3 0  9996", "line2": "2 53215  97.2848 247.7718 0001304  85.0956 275.0420 15.05652928217961"}, {"name": "STARLINK-4376", "line1": "1 53216U 22084AD  26188.75142345  .00000894  00000+0  65848-4 0  9994", "line2": "2 53216  97.2834 246.6694 0001590  92.1514 267.9896 15.05648160217379"}, {"name": "STARLINK-4384", "line1": "1 53218U 22084AF  26188.70578519  .00001149  00000+0  85409-4 0  9996", "line2": "2 53218  97.3219 247.8881 0000961  95.5897 264.5440 15.04826537217960"}, {"name": "STARLINK-4373", "line1": "1 53219U 22084AG  26188.72229455  .00002546  00000+0  18021-3 0  9998", "line2": "2 53219  97.2846 247.7456 0001341  39.3205 320.8120 15.05668023217444"}, {"name": "STARLINK-4363", "line1": "1 53220U 22084AH  26188.68771645  .00000801  00000+0  59403-4 0  9990", "line2": "2 53220  97.2844 246.5892 0002349 102.8210 257.3280 15.05662093217886"}, {"name": "STARLINK-4377", "line1": "1 53221U 22084AJ  26188.71542279  .00001557  00000+0  11179-3 0  9990", "line2": "2 53221  97.2847 246.6843 0001225  91.1678 268.9690 15.05655282217376"}, {"name": "STARLINK-4356", "line1": "1 53224U 22084AM  26188.75697308  .00001188  00000+0  86246-4 0  9999", "line2": "2 53224  97.2841 246.6363 0001799 108.3713 251.7710 15.05637767217378"}, {"name": "STARLINK-4358", "line1": "1 53225U 22084AN  26188.72507787  .00000620  00000+0  46841-4 0  9995", "line2": "2 53225  97.2829 247.7237 0000728 150.0715 210.0554 15.05650695217441"}, {"name": "STARLINK-4359", "line1": "1 53226U 22084AP  26188.74034727  .00000466  00000+0  36217-4 0  9991", "line2": "2 53226  97.2825 246.6471 0001829 107.1437 252.9991 15.05646690217375"}, {"name": "STARLINK-4366", "line1": "1 53227U 22084AQ  26188.70569480  .00000043  00000+0  68863-5 0  9991", "line2": "2 53227  97.2819 247.7322 0001187 141.0883 219.0431 15.05653885217440"}, {"name": "STARLINK-4365", "line1": "1 53228U 22084AR  26188.69882865  .00001543  00000+0  11083-3 0  9991", "line2": "2 53228  97.2845 246.6991 0001714 112.6839 247.4570 15.05635959217374"}, {"name": "STARLINK-4367", "line1": "1 53229U 22084AS  26188.71111188  .00004622  00000+0  32405-3 0  9990", "line2": "2 53229  97.3235 247.8273 0001626  78.4202 281.7208 15.05656056217448"}, {"name": "STARLINK-4364", "line1": "1 53230U 22084AT  26188.75554975  .00000987  00000+0  72322-4 0  9994", "line2": "2 53230  97.2833 247.8316 0001878 103.1020 257.0417 15.05648633217455"}, {"name": "STARLINK-4370", "line1": "1 53231U 22084AU  26188.70017201  .00001580  00000+0  11344-3 0  9992", "line2": "2 53231  97.2838 247.7404 0002032 134.6667 225.4727 15.05636753217449"}, {"name": "STARLINK-4371", "line1": "1 53232U 22084AV  26188.67111350 -.00003431  00000+0 -23392-3 0  9994", "line2": "2 53232  97.2817 246.5675 0002475 130.0780 230.0665 15.05663031217364"}, {"name": "STARLINK-4372", "line1": "1 53233U 22084AW  26188.72927748 -.00001711  00000+0 -11472-3 0  9992", "line2": "2 53233  97.2808 246.6340 0002309 151.3784 208.7570 15.05640670217373"}, {"name": "STARLINK-4368", "line1": "1 53234U 22084AX  26188.69558969  .00013669  00000+0  22770-3 0  9990", "line2": "2 53234  97.5998 251.2026 0000985  90.7919 269.3446 15.52138871218568"}, {"name": "STARLINK-4056", "line1": "1 53242U 22086A   26188.73066995  .00000859  00000+0  72107-4 0  9996", "line2": "2 53242  53.1615  20.0112 0001128  85.8514 274.2607 15.08823535219435"}, {"name": "STARLINK-4047", "line1": "1 53243U 22086B   26188.83337963  .00020245  00000+0  10636-2 0  9992", "line2": "2 53243  53.1609  24.0779 0000162 326.9839 113.7920 15.15696918  5684"}, {"name": "STARLINK-4125", "line1": "1 53244U 22086C   26188.83337963  .00062564  00000+0  26107-2 0  9993", "line2": "2 53244  53.1610  24.1927 0002086  51.1774  29.3340 15.23099752  5630"}, {"name": "STARLINK-4131", "line1": "1 53246U 22086E   26188.83337963  .00025284  00000+0  11186-2 0  9994", "line2": "2 53246  53.1605  24.1855 0001033  51.4328  13.5400 15.21546744  5633"}, {"name": "STARLINK-4061", "line1": "1 53247U 22086F   26188.74539683  .00001108  00000+0  87716-4 0  9991", "line2": "2 53247  53.1603  20.1384 0001246  76.7993 283.3138 15.08825990219437"}, {"name": "STARLINK-4135", "line1": "1 53248U 22086G   26188.80060836  .00001276  00000+0  98319-4 0  9995", "line2": "2 53248  53.1611  19.8111 0001321  77.7041 282.4098 15.08820278219449"}, {"name": "STARLINK-4128", "line1": "1 53249U 22086H   26188.75548906 -.00004420  00000+0 -14083-3 0  9990", "line2": "2 53249  53.1618  13.0082 0001529 105.3849 254.7320 15.29372494219236"}, {"name": "STARLINK-4059", "line1": "1 53250U 22086J   26188.83337963  .00070936  00000+0  29863-2 0  9994", "line2": "2 53250  53.1592  14.1119 0000726  29.3422 348.3769 15.22741743  5782"}, {"name": "STARLINK-4129", "line1": "1 53251U 22086K   26188.76589834  .00001178  00000+0  53155-4 0  9998", "line2": "2 53251  53.1607  13.1532 0000923  85.0578 275.0528 15.29352353219214"}, {"name": "STARLINK-4132", "line1": "1 53252U 22086L   26188.83337963  .00054922  00000+0  17762-2 0  9998", "line2": "2 53252  53.1607  12.8377 0000904  59.6846 268.0544 15.31562287  5734"}]